RAVAN                   
1 41849U 16067B   19008.49276035  .00000529  00000-0  49941-4 0  9997
2 41849  97.9230 105.2852 0008069 186.6858 173.4257 14.98060125117864
CELTEE 1                
1 41850U 16067C   19008.71441492 -.00000141  00000-0 -70209-5 0  9999
2 41850  97.9186 104.5687 0008560 192.5833 167.5175 14.96923963117846
OPTICUBE 04             
1 41851U 16067D   19008.70191760 -.00000444  00000-0 -33482-4 0  9996
2 41851  97.9189 104.4072 0008392 193.1605 166.9398 14.96749776117831
AEROCUBE 8D             
1 41852U 16067E   19008.22482956  .00000124  00000-0  16171-4 0  9993
2 41852  97.9204 103.7524 0009156 194.0866 166.0101 14.96623356117740
AEROCUBE 8C             
1 41853U 16067F   19008.24388318 -.00000188  00000-0 -11195-4 0  9996
2 41853  97.9195 103.7204 0009649 197.7113 162.3773 14.96582215117749
PROMETHEUS 2-1          
1 41854U 16067G   19008.23183497 -.00000096  00000-0 -30972-5 0  9990
2 41854  97.9208 103.7778 0009837 196.4714 163.6188 14.96753921117741
PROMETHEUS 2-3          
1 41855U 16067H   19008.70252524 -.00000197  00000-0 -11942-4 0  9998
2 41855  97.9209 104.2643 0010088 195.8604 164.2302 14.96753890117819
ITF-2                   
1 41932U 98067KU  19003.69298287  .08988731  12526-4  32153-3 0  9994
2 41932  51.6105   8.9412 0001311 269.7383  90.3495 16.44586236112635
INS-1B                  
1 41954U 17008G   19008.40594129  .00001034  00000-0  46214-4 0  9990
2 41954  97.4221  75.4181 0009176   3.2992 356.8304 15.23531227105246
BGUSAT                  
1 41999U 17008BD  19008.40760395  .00001762  00000-0  72551-4 0  9990
2 41999  97.4277  77.1550 0008506  19.7970 340.3597 15.25433158104707
DIDO-2                  
1 42000U 17008BE  19007.60810656  .00000783  00000-0  35684-4 0  9999
2 42000  97.4236  75.1438 0009103  24.9753 335.1923 15.23594507104529
PEASSS                  
1 42015U 17008BV  19008.85134652  .00000909  00000-0  39879-4 0  9998
2 42015  97.4237  77.0942 0007062  29.8929 330.2710 15.24483719105241
AL-FARABI 1             
1 42016U 17008BW  19007.86158765  .00001265  00000-0  53542-4 0  9999
2 42016  97.4250  76.4835 0007004  32.9435 327.2238 15.25015786105230
NAYIF-1 (EO-88)         
1 42017U 17008BX  19008.63972013  .00001186  00000-0  50327-4 0  9996
2 42017  97.4246  77.2638 0006902  30.7263 329.4378 15.25045712105373
HAVELSAT                
1 42700U 98067LH  19008.44728161  .00107387  15515-4  31767-3 0  9998
2 42700  51.6247  12.6220 0003809  30.5933 329.5295 15.92447526 94458
CXBN-2                  
1 42704U 98067LM  19008.40939002  .00108166  15523-4  33188-3 0  9990
2 42704  51.6280  14.7003 0002598  45.2608 314.8609 15.91748061 94348
PHOENIX                 
1 42706U 98067LP  19008.85501081  .00038748  00000-0  19763-3 0  9994
2 42706  51.6288  20.0393 0000830  23.9393 336.1647 15.80981907 94302
X-CUBESAT               
1 42707U 98067LQ  19008.43280105  .00203280  28242-4  40839-3 0  9995
2 42707  51.6233   9.3766 0003864  61.0935 299.0462 15.99277285 94390
QBEE50-LTU-OC           
1 42708U 98067LR  19008.47883036  .00112081  15876-4  33589-3 0  9993
2 42708  51.6252  13.6089 0003207  49.2354 310.8930 15.92176931 94304
ALTAIR PATHFINDER       
1 42711U 98067LS  19008.54809191  .00018542  00000-0  14784-3 0  9997
2 42711  51.6344  39.1729 0002094 250.6692 109.4080 15.71214581 93689
SHARC                   
1 42712U 98067LT  19008.49300467  .00048552  00000-0  28598-3 0  9996
2 42712  51.6331  37.3397 0001623 352.3014   7.7961 15.77691807 93945
ZA-AEROSAT              
1 42713U 98067LU  19008.50727291  .00037797  00000-0  20782-3 0  9993
2 42713  51.6344  26.7717 0000713 316.2870  43.8074 15.79343820 93842
CSUNSAT 1               
1 42715U 98067LW  19008.49789406  .00047304  00000-0  23495-3 0  9998
2 42715  51.6326  24.4515 0001087 299.4463  60.6430 15.81466720 93874
SPACECUBE               
1 42717U 98067LY  19008.46550505  .00103761  15179-4  31858-3 0  9992
2 42717  51.6207  14.1636 0003630  33.2374 326.8860 15.91754600 93372
NJUST-1                 
1 42722U 98067MB  19008.46659770  .00036505  00000-0  22454-3 0  9998
2 42722  51.6412  30.7539 0003039 321.7251 183.4785 15.76842895 92856
LILACSAT-1              
1 42725U 98067ME  19008.53084936  .00084270  00000-0  33313-3 0  9993
2 42725  51.6348  20.5805 0003210   7.5384 130.8654 15.86055236 92900
NSIGHT-1                
1 42726U 98067MF  19008.55436441  .00007988  00000-0  83113-4 0  9993
2 42726  51.6387  49.1290 0004344 289.3695  70.6831 15.65622918 92534
SNUSAT-1                
1 42727U 98067MG  19008.85133710  .00068179  00000-0  27726-3 0  9996
2 42727  51.6303  19.1676 0002154 320.6113  39.4734 15.85554741 92916
POLYITAN-2-SAU          
1 42732U 98067MM  19008.41921817  .00186319  25412-4  38657-3 0  9997
2 42732  51.6262  10.8778 0002893  62.1701 297.9601 15.98741878 92870
SNUSAT-1B               
1 42733U 98067MN  19008.44572951  .00079989  00000-0  27819-3 0  9996
2 42733  51.6268  17.9230 0001313 341.4484  18.6473 15.88683876 92782
BEEAGLESAT              
1 42736U 98067MR  19008.49146821  .00051830  00000-0  24418-3 0  9994
2 42736  51.6306  23.5853 0003453 326.6775  33.4010 15.82560414 92774
UCLSAT                  
1 42765U 17036A   19008.45252037  .00000989  00000-0  45798-4 0  9990
2 42765  97.3751  69.7369 0013269  78.7612 281.5115 15.22345542 85931
LITUANICASAT-2          
1 42768U 17036D   19007.63426474  .00001633  00000-0  74005-4 0  9990
2 42768  97.3778  68.4879 0016930  72.1779 288.1303 15.22154964 85652
AALTO-1                 
1 42775U 17036L   19008.10733005  .00000660  00000-0  32730-4 0  9990
2 42775  97.3740  68.4988 0015676  69.7620 290.5299 15.21069966 85649
URSA MAIOR              
1 42776U 17036M   19007.81794900  .00000677  00000-0  33388-4 0  9997
2 42776  97.3748  68.3150 0015496  70.7927 289.4984 15.21183753 85605
COMPASS 2               
1 42777U 17036N   19008.45834238  .00001270  00000-0  57910-4 0  9995
2 42777  97.3778  69.7197 0014252  71.1272 289.1509 15.22373455 85737
DIAMOND RED             
1 42783U 17036U   19008.64101058  .00000791  00000-0  37745-4 0  9991
2 42783  97.3751  69.6464 0013917  78.4975 281.7823 15.21870480 85756
PEGASUS                 
1 42784U 17036V   19008.38585330  .00000911  00000-0  42692-4 0  9993
2 42784  97.3754  69.5426 0013828  79.0976 281.1816 15.22122961 85724
DIAMOND GREEN           
1 42785U 17036W   19007.85078462  .00000840  00000-0  39900-4 0  9997
2 42785  97.3754  68.8910 0013833  81.4850 278.7953 15.21869198 85700
DIAMOND BLUE            
1 42786U 17036X   19007.58680150  .00000779  00000-0  37196-4 0  9997
2 42786  97.3754  68.6316 0013680  82.5280 277.7510 15.21869251 85661
NUDTSAT                 
1 42787U 17036Y   19008.86990423  .00001463  00000-0  65258-4 0  9998
2 42787  97.3786  70.4550 0013290  69.1520 291.1137 15.22909640 85666
SUCHAI                  
1 42788U 17036Z   19007.90731244  .00001123  00000-0  51408-4 0  9992
2 42788  97.3758  69.2717 0013426  80.3218 279.9534 15.22469803 85732
SKCUBE                  
1 42789U 17036AA  19007.91408274  .00001056  00000-0  48628-4 0  9993
2 42789  97.3755  69.2494 0013271  80.2495 280.0240 15.22398464 85658
VZLUSAT-1               
1 42790U 17036AB  19007.74026838  .00001305  00000-0  58522-4 0  9999
2 42790  97.3765  69.3498 0012870  80.7387 279.5305 15.22914853 85645
ROBUSTA-1B              
1 42792U 17036AD  19008.58509939  .00001003  00000-0  46123-4 0  9991
2 42792  97.3753  70.0154 0012838  79.0553 281.2128 15.22558455 85771
CICERO 6                
1 42793U 17036AE  19007.82049169  .00000689  00000-0  32891-4 0  9998
2 42793  97.3741  69.1659 0012077  82.6749 277.5860 15.22276093 85721
D-SAT                   
1 42794U 17036AF  19007.80724765  .00000304  00000-0  32150-4 0  9991
2 42794  97.5643  59.4173 0125795 321.6242  37.6077 14.90999452 84217
TOKI                    
1 42820U 98067MU  19008.07382119  .00051057  00000-0  25829-3 0  9992
2 42820  51.6319  29.8410 0000837 353.5273   6.5718 15.81035408 86111
MAZAALAI (NUMSAT-1)     
1 42822U 98067MW  19008.16783446  .00046446  00000-0  24442-3 0  9998
2 42822  51.6333  30.4959 0000975 322.9750  37.1185 15.80214295 86095
BRAC ONNESHA            
1 42823U 98067MX  19008.51617936  .00046374  00000-0  23901-3 0  9997
2 42823  51.6302  28.3254 0001799 286.3565  73.7239 15.80670430 86158
NIGERIAEDUSAT-1         
1 42824U 98067MY  19007.51163424  .00043815  00000-0  23368-3 0  9999
2 42824  51.6346  34.4232 0002388 291.4974  68.5772 15.79944778 86002
CORVUS BC2              
1 42846U 17042X   19007.64166551  .00000068  00000-0  12011-4 0  9992
2 42846  97.5825 267.9248 0008362 229.8315 130.2173 14.91906775 80856
CORVUS BC1              
1 42847U 17042Y   19007.94107706  .00000249  00000-0  29857-4 0  9990
2 42847  97.5824 268.2934 0008080 228.0830 131.9701 14.92007052 80892
SILU-1 (SILKROAD 1)     
1 42903U 17021F   19008.76963653  .00069819  00000-0  26102-3 0  9999
2 42903  42.7718 151.5552 0016917 324.3814 173.6110 15.86769727 82403
MIRATA                  
1 43015U 17073C   19008.03517357  .00001451  00000-0  11955-3 0  9995
2 43015  97.7164 295.6055 0255984 324.7371  33.7133 14.78626512 61404
MAKERSAT 0              
1 43016U 17073D   19008.77265223  .00000982  00000-0  82615-4 0  9999
2 43016  97.7197 296.4911 0257669 322.4810  35.8657 14.78484632 61506
ASTERIA                 
1 43020U 98067NH  19008.55329761  .00015174  00000-0  15965-3 0  9992
2 43020  51.6424  58.9793 0001545 226.0793 134.0075 15.64521881 64582
DELLINGR (RBLE)         
1 43021U 98067NJ  19008.52318126  .00006085  00000-0  78806-4 0  9998
2 43021  51.6398  64.7088 0001780 204.8813 155.2095 15.60410533 64509
OSIRIS-3U               
1 43027U 98067NL  19008.54285105  .00099198  00000-0  41629-3 0  9995
2 43027  51.6350  39.1317 0002008  22.8241 337.2851 15.84755640 64724
